STARLINK-37733          
1 69329U 26122A   26183.58335648  .00028521  00000+0  88252-3 0  9999
2 69329  97.2845 213.2729 0001201  91.8995  45.5993 15.33441550  5828
STARLINK-37772          
1 69330U 26122B   26183.58335648  .00025760  00000+0  79810-3 0  9993
2 69330  97.2841 213.2791 0001159  95.0957  57.4320 15.33422576  5778
STARLINK-37768          
1 69331U 26122C   26183.58335648 -.01623927  00000+0 -43178-1 0  9992
2 69331  97.2849 213.2762 0001622  64.9825  74.8888 15.41561260  5774
STARLINK-37833          
1 69332U 26122D   26183.58335648  .00024827  00000+0  76910-3 0  9996
2 69332  97.2846 213.2911 0001137  87.6576  94.8340 15.33434137  5772
STARLINK-37818          
1 69333U 26122E   26183.58335648  .00032618  00000+0  90096-3 0  9995
2 69333  97.2846 213.2877 0000880 134.0379  38.5789 15.36991429  5829
STARLINK-37868          
1 69334U 26122F   26183.58335648  .00037190  00000+0  11493-2 0  9999
2 69334  97.2838 213.3062 0001865 101.6587 110.8297 15.33426431  5824
STARLINK-37877          
1 69335U 26122G   26182.32958104  .00065664  00000+0  12005-2 0  9996
2 69335  97.2856 212.0107 0000986  47.8546 312.2788 15.49152259  4351
STARLINK-37791          
1 69336U 26122H   26183.58335648 -.02296005  00000+0 -75635-1 0  9994
2 69336  97.2846 213.3178 0001370  96.2317 145.4098 15.35093620  5829
STARLINK-37765          
1 69337U 26122J   26183.53669228  .00029321  00000+0  90681-3 0  9995
2 69337  97.2830 213.2774 0000675 223.7340 136.3849 15.33452642  4546
STARLINK-37788          
1 69338U 26122K   26183.04200813  .00033856  00000+0  62097-3 0  9991
2 69338  97.2831 212.7264 0000489 358.8265   1.2985 15.49214050  4463
STARLINK-37743          
1 69339U 26122L   26181.00941590  .00050231  00000+0  91719-3 0  9999
2 69339  97.2850 210.7434 0000977  99.1717 260.9645 15.49256981  4153
STARLINK-37780          
1 69340U 26122M   26183.58335648 -.00757032  00000+0 -22566-1 0  9994
2 69340  97.2840 213.3396 0001728 111.6723 182.8971 15.37267835  5873
STARLINK-37781          
1 69341U 26122N   26183.04318259  .00056736  00000+0  10375-2 0  9992
2 69341  97.2851 212.7242 0000395  62.2163 297.9128 15.49185248  4463
STARLINK-37782          
1 69342U 26122P   26183.58335648  .00023984  00000+0  74330-3 0  9994
2 69342  97.2844 213.3572 0001423  98.7509 233.7650 15.33427025  5824
STARLINK-37776          
1 69343U 26122Q   26183.58335648  .00031307  00000+0  96868-3 0  9993
2 69343  97.2845 213.3616 0001123  80.3611 267.1531 15.33424372  5824
STARLINK-37786          
1 69344U 26122R   26182.35962281  .00101101  00000+0  18402-2 0  9994
2 69344  97.2837 212.1255 0004585 131.1264 229.0384 15.49127849  4363
STARLINK-37785          
1 69345U 26122S   26183.58335648  .00029523  00000+0  91343-3 0  9995
2 69345  97.2846 213.3753 0001361  64.5932 312.8878 15.33437973  5826
STARLINK-37773          
1 69346U 26122T   26183.58335648  .00030035  00000+0  83120-3 0  9990
2 69346  97.2843 213.3720 0001817  87.5151 281.4618 15.36947527  5874
STARLINK-37744          
1 69347U 26122U   26183.36207810  .00050523  00000+0  92454-3 0  9990
2 69347  97.2849 213.0562 0000634  93.2949 266.8375 15.49193510  4513
STARLINK-37775          
1 69348U 26122V   26183.58335648  .00041170  00000+0  11370-2 0  9991
2 69348  97.2847 213.3691 0001509  86.9094 279.4751 15.36944809  5824
STARLINK-37777          
1 69349U 26122W   26183.58335648 -.02357589  00000+0 -63953-1 0  9993
2 69349  97.2848 213.3925 0001683  98.5622 300.8965 15.41128561  5826
STARLINK-37779          
1 69350U 26122X   26182.97577480  .00102606  00000+0  18346-2 0  9990
2 69350  97.2856 212.8149 0001020 163.0436 197.0850 15.49639968  4469
STARLINK-37549          
1 69351U 26122Y   26183.53305280  .00048756  00000+0  89205-3 0  9999
2 69351  97.2818 213.2824 0001504  80.0949 280.0472 15.49205954  4543
STARLINK-37778          
1 69352U 26122Z   26183.52509562  .00043047  00000+0  78822-3 0  9999
2 69352  97.2819 213.2930 0000413 121.8515 238.2777 15.49211857  4546
STARLINK-37651          
1 69353U 26123A   26181.51140785  .00250807  00000+0  12304-2 0  9992
2 69353  53.1561 175.0288 0002940 168.1568 191.9524 15.80998863  4147
STARLINK-37652          
1 69354U 26123B   26183.21949134  .00402745  00000+0  19487-2 0  9996
2 69354  53.1572 166.4840 0001500  48.9939 311.1213 15.80891186  4417
STARLINK-37593          
1 69355U 26123C   26183.47148389 -.00167576  00000+0 -85432-3 0  9994
2 69355  53.1575 165.2091 0001628 148.3212 211.7909 15.81064551  4456
STARLINK-37597          
1 69356U 26123D   26182.23245013  .00190946  00000+0  12181-2 0  9995
2 69356  53.1602 171.7155 0001131 101.5172 258.5975 15.75310661  4255
STARLINK-37598          
1 69357U 26123E   26181.19186955  .00441950  00000+0  20996-2 0  9996
2 69357  53.1563 176.5897 0003966 205.9333 154.1492 15.81184312  4090
STARLINK-37602          
1 69358U 26123F   26182.25935807  .00176896  00000+0  11301-2 0  9997
2 69358  53.1593 171.8942 0000977  92.2710 267.8422 15.75320594  4258
