OBJECT_NAME,OBJECT_ID,EPOCH,MEAN_MOTION,ECCENTRICITY,INCLINATION,RA_OF_ASC_NODE,ARG_OF_PERICENTER,MEAN_ANOMALY,EPHEMERIS_TYPE,CLASSIFICATION_TYPE,NORAD_CAT_ID,ELEMENT_SET_NO,REV_AT_EPOCH,BSTAR,MEAN_MOTION_DOT,MEAN_MOTION_DDOT
STARLINK-37733,2026-122A,2026-07-02T14:00:01.999872,15.33441550,.0001201,97.2845,213.2729,91.8995,45.5993,0,U,69329,999,582,.88252408E-3,.28521E-3,0
STARLINK-37772,2026-122B,2026-07-02T14:00:01.999872,15.33422576,.00011596,97.2841,213.2791,95.0957,57.4320,0,U,69330,999,577,.79809788E-3,.2576E-3,0
STARLINK-37768,2026-122C,2026-07-02T14:00:01.999872,15.41561260,.0001622,97.2849,213.2762,64.9825,74.8888,0,U,69331,999,577,-.43177986E-1,-.1623927E-1,0
STARLINK-37833,2026-122D,2026-07-02T14:00:01.999872,15.33434137,.00011372,97.2846,213.2911,87.6576,94.8340,0,U,69332,999,577,.76909843E-3,.24827E-3,0
STARLINK-37818,2026-122E,2026-07-02T14:00:01.999872,15.36991429,.00008802,97.2846,213.2877,134.0379,38.5789,0,U,69333,999,582,.90095738E-3,.32618E-3,0
STARLINK-37868,2026-122F,2026-07-02T14:00:01.999872,15.33426431,.00018657,97.2838,213.3062,101.6587,110.8297,0,U,69334,999,582,.11492802E-2,.3719E-3,0
STARLINK-37877,2026-122G,2026-07-01T07:54:35.801856,15.49152259,.00009863,97.2856,212.0107,47.8546,312.2788,0,U,69335,999,435,.12005145E-2,.65664E-3,0
STARLINK-37791,2026-122H,2026-07-02T14:00:01.999872,15.35093620,.00013701,97.2846,213.3178,96.2317,145.4098,0,U,69336,999,582,-.75634597E-1,-.2296005E-1,0
STARLINK-37765,2026-122J,2026-07-02T12:52:50.212992,15.33452642,.00006757,97.2830,213.2774,223.7340,136.3849,0,U,69337,999,454,.90681282E-3,.29321E-3,0
STARLINK-37788,2026-122K,2026-07-02T01:00:29.502432,15.49214050,.00004897,97.2831,212.7264,358.8265,1.2985,0,U,69338,999,446,.6209658E-3,.33856E-3,0
STARLINK-37743,2026-122L,2026-06-30T00:13:33.533760,15.49256981,.00009773,97.2850,210.7434,99.1717,260.9645,0,U,69339,999,415,.91718737E-3,.50231E-3,0
STARLINK-37780,2026-122M,2026-07-02T14:00:01.999872,15.37267835,.00017281,97.2840,213.3396,111.6723,182.8971,0,U,69340,999,587,-.22566467E-1,-.757032E-2,0
STARLINK-37781,2026-122N,2026-07-02T01:02:10.975776,15.49185248,.00003956,97.2851,212.7242,62.2163,297.9128,0,U,69341,999,446,.10374969E-2,.56736E-3,0
STARLINK-37782,2026-122P,2026-07-02T14:00:01.999872,15.33427025,.00014235,97.2844,213.3572,98.7509,233.7650,0,U,69342,999,582,.74330173E-3,.23984E-3,0
STARLINK-37776,2026-122Q,2026-07-02T14:00:01.999872,15.33424372,.00011235,97.2845,213.3616,80.3611,267.1531,0,U,69343,999,582,.96868269E-3,.31307E-3,0
STARLINK-37786,2026-122R,2026-07-01T08:37:51.410784,15.49127849,.00045859,97.2837,212.1255,131.1264,229.0384,0,U,69344,999,436,.18402008E-2,.101101E-2,0
STARLINK-37785,2026-122S,2026-07-02T14:00:01.999872,15.33437973,.00013617,97.2846,213.3753,64.5932,312.8878,0,U,69345,999,582,.91343272E-3,.29523E-3,0
STARLINK-37773,2026-122T,2026-07-02T14:00:01.999872,15.36947527,.00018172,97.2843,213.3720,87.5151,281.4618,0,U,69346,999,587,.83120303E-3,.30035E-3,0
STARLINK-37744,2026-122U,2026-07-02T08:41:23.547840,15.49193510,.00006348,97.2849,213.0562,93.2949,266.8375,0,U,69347,999,451,.92454047E-3,.50523E-3,0
STARLINK-37775,2026-122V,2026-07-02T14:00:01.999872,15.36944809,.0001509,97.2847,213.3691,86.9094,279.4751,0,U,69348,999,582,.1136997E-2,.4117E-3,0
STARLINK-37777,2026-122W,2026-07-02T14:00:01.999872,15.41128561,.00016836,97.2848,213.3925,98.5622,300.8965,0,U,69349,999,582,-.63953151E-1,-.2357589E-1,0
STARLINK-37779,2026-122X,2026-07-01T23:25:06.942720,15.49639968,.00010206,97.2856,212.8149,163.0436,197.0850,0,U,69350,999,446,.1834625E-2,.102606E-2,0
STARLINK-37549,2026-122Y,2026-07-02T12:47:35.761920,15.49205954,.00015043,97.2818,213.2824,80.0949,280.0472,0,U,69351,999,454,.89204915E-3,.48756E-3,0
STARLINK-37778,2026-122Z,2026-07-02T12:36:08.261568,15.49211857,.00004135,97.2819,213.2930,121.8515,238.2777,0,U,69352,999,454,.78822043E-3,.43047E-3,0
STARLINK-37651,2026-123A,2026-06-30T12:16:25.638240,15.80998863,.000294,53.1561,175.0288,168.1568,191.9524,0,U,69353,999,414,.12304E-2,.250807E-2,0
STARLINK-37652,2026-123B,2026-07-02T05:16:04.051776,15.80891186,.00015008,53.1572,166.4840,48.9939,311.1213,0,U,69354,999,441,.19487427E-2,.402745E-2,0
STARLINK-37593,2026-123C,2026-07-02T11:18:56.208096,15.81064551,.00016283,53.1575,165.2091,148.3212,211.7909,0,U,69355,999,445,-.85431763E-3,-.167576E-2,0
STARLINK-37597,2026-123D,2026-07-01T05:34:43.691232,15.75310661,.00011314,53.1602,171.7155,101.5172,258.5975,0,U,69356,999,425,.12180699E-2,.190946E-2,0
STARLINK-37598,2026-123E,2026-06-30T04:36:17.529120,15.81184312,.00039663,53.1563,176.5897,205.9333,154.1492,0,U,69357,999,409,.20996348E-2,.44195E-2,0
STARLINK-37602,2026-123F,2026-07-01T06:13:28.537248,15.75320594,.0000977,53.1593,171.8942,92.2710,267.8422,0,U,69358,999,425,.11301E-2,.176896E-2,0
